[{"OBJECT_NAME":"STARLINK-4276","OBJECT_ID":"2022-083AZ","EPOCH":"2024-01-02T13:01:12.851904","MEAN_MOTION":15.08845893,"ECCENTRICITY":0.0001441,"INCLINATION":53.217,"RA_OF_ASC_NODE":102.2539,"ARG_OF_PERICENTER":78.7852,"MEAN_ANOMALY":281.3302,"EPHEMERIS_TYPE":0,"CLASSIFICATION_TYPE":"U","NORAD_CAT_ID":53179,"ELEMENT_SET_NO":999,"REV_AT_EPOCH":8157,"BSTAR":0.0001109,"MEAN_MOTION_DOT":1.478e-5,"MEAN_MOTION_DDOT":0},{"OBJECT_NAME":"STARLINK-4258","OBJECT_ID":"2022-083BA","EPOCH":"2024-01-02T16:49:07.588128","MEAN_MOTION":15.0884386,"ECCENTRICITY":0.0001289,"INCLINATION":53.2174,"RA_OF_ASC_NODE":101.8144,"ARG_OF_PERICENTER":90.8296,"MEAN_ANOMALY":269.2844,"EPHEMERIS_TYPE":0,"CLASSIFICATION_TYPE":"U","NORAD_CAT_ID":53180,"ELEMENT_SET_NO":999,"REV_AT_EPOCH":8159,"BSTAR":8.2496e-5,"MEAN_MOTION_DOT":1.025e-5,"MEAN_MOTION_DDOT":0},{"OBJECT_NAME":"STARLINK-4273","OBJECT_ID":"2022-083BB","EPOCH":"2024-01-02T11:52:21.048384","MEAN_MOTION":15.08869383,"ECCENTRICITY":0.0001168,"INCLINATION":53.2174,"RA_OF_ASC_NODE":102.6624,"ARG_OF_PERICENTER":88.9913,"MEAN_ANOMALY":271.1213,"EPHEMERIS_TYPE":0,"CLASSIFICATION_TYPE":"U","NORAD_CAT_ID":53181,"ELEMENT_SET_NO":999,"REV_AT_EPOCH":8156,"BSTAR":-0.00023442,"MEAN_MOTION_DOT":-4.02e-5,"MEAN_MOTION_DDOT":0},{"OBJECT_NAME":"STARLINK-4278","OBJECT_ID":"2022-083BC","EPOCH":"2024-01-02T14:05:31.491456","MEAN_MOTION":15.08852037,"ECCENTRICITY":0.0001397,"INCLINATION":53.2176,"RA_OF_ASC_NODE":117.4457,"ARG_OF_PERICENTER":76.112,"MEAN_ANOMALY":284.0027,"EPHEMERIS_TYPE":0,"CLASSIFICATION_TYPE":"U","NORAD_CAT_ID":53182,"ELEMENT_SET_NO":999,"REV_AT_EPOCH":8136,"BSTAR":0.00010735,"MEAN_MOTION_DOT":1.421e-5,"MEAN_MOTION_DDOT":0},{"OBJECT_NAME":"STARLINK-4268","OBJECT_ID":"2022-083BD","EPOCH":"2024-01-02T15:52:50.606112","MEAN_MOTION":15.08843894,"ECCENTRICITY":0.0001374,"INCLINATION":53.2167,"RA_OF_ASC_NODE":107.0278,"ARG_OF_PERICENTER":92.1762,"MEAN_ANOMALY":267.9387,"EPHEMERIS_TYPE":0,"CLASSIFICATION_TYPE":"U","NORAD_CAT_ID":53183,"ELEMENT_SET_NO":999,"REV_AT_EPOCH":8151,"BSTAR":6.7868e-5,"MEAN_MOTION_DOT":7.92e-6,"MEAN_MOTION_DDOT":0},{"OBJECT_NAME":"STARLINK-4257","OBJECT_ID":"2022-083BE","EPOCH":"2024-01-02T12:55:55.302528","MEAN_MOTION":15.08840222,"ECCENTRICITY":0.0001413,"INCLINATION":53.2167,"RA_OF_ASC_NODE":102.2563,"ARG_OF_PERICENTER":80.6643,"MEAN_ANOMALY":279.4509,"EPHEMERIS_TYPE":0,"CLASSIFICATION_TYPE":"U","NORAD_CAT_ID":53184,"ELEMENT_SET_NO":999,"REV_AT_EPOCH":8158,"BSTAR":2.176e-5,"MEAN_MOTION_DOT":5.8e-7,"MEAN_MOTION_DDOT":0},{"OBJECT_NAME":"STARLINK-4391","OBJECT_ID":"2022-084A","EPOCH":"2024-01-02T18:11:14.425440","MEAN_MOTION":15.01278792,"ECCENTRICITY":0.000158,"INCLINATION":97.6562,"RA_OF_ASC_NODE":65.9499,"ARG_OF_PERICENTER":76.6506,"MEAN_ANOMALY":283.4894,"EPHEMERIS_TYPE":0,"CLASSIFICATION_TYPE":"U","NORAD_CAT_ID":53189,"ELEMENT_SET_NO":999,"REV_AT_EPOCH":8042,"BSTAR":0.00020088,"MEAN_MOTION_DOT":2.523e-5,"MEAN_MOTION_DDOT":0},{"OBJECT_NAME":"STARLINK-4332","OBJECT_ID":"2022-084B","EPOCH":"2024-01-02T17:14:53.394720","MEAN_MOTION":15.01260321,"ECCENTRICITY":2.98e-5,"INCLINATION":97.6585,"RA_OF_ASC_NODE":65.9276,"ARG_OF_PERICENTER":210.9535,"MEAN_ANOMALY":149.1672,"EPHEMERIS_TYPE":0,"CLASSIFICATION_TYPE":"U","NORAD_CAT_ID":53190,"ELEMENT_SET_NO":999,"REV_AT_EPOCH":8041,"BSTAR":5.2956e-5,"MEAN_MOTION_DOT":6.21e-6,"MEAN_MOTION_DDOT":0},{"OBJECT_NAME":"STARLINK-4369","OBJECT_ID":"2022-084C","EPOCH":"2024-01-03T03:30:44.981280","MEAN_MOTION":15.0126032,"ECCENTRICITY":0.0001631,"INCLINATION":97.6566,"RA_OF_ASC_NODE":66.3432,"ARG_OF_PERICENTER":247.7427,"MEAN_ANOMALY":112.3624,"EPHEMERIS_TYPE":0,"CLASSIFICATION_TYPE":"U","NORAD_CAT_ID":53191,"ELEMENT_SET_NO":999,"REV_AT_EPOCH":8018,"BSTAR":-1.53e-5,"MEAN_MOTION_DOT":-2.56e-6,"MEAN_MOTION_DDOT":0},{"OBJECT_NAME":"STARLINK-4375","OBJECT_ID":"2022-084D","EPOCH":"2024-01-03T03:28:04.919232","MEAN_MOTION":15.01260153,"ECCENTRICITY":0.000217,"INCLINATION":97.6566,"RA_OF_ASC_NODE":66.3412,"ARG_OF_PERICENTER":253.8083,"MEAN_ANOMALY":106.2903,"EPHEMERIS_TYPE":0,"CLASSIFICATION_TYPE":"U","NORAD_CAT_ID":53192,"ELEMENT_SET_NO":999,"REV_AT_EPOCH":8018,"BSTAR":-1.3103e-5,"MEAN_MOTION_DOT":-2.27e-6,"MEAN_MOTION_DDOT":0},{"OBJECT_NAME":"STARLINK-4351","OBJECT_ID":"2022-084E","EPOCH":"2024-01-02T18:00:12.693024","MEAN_MOTION":15.01253623,"ECCENTRICITY":1.06e-5,"INCLINATION":97.6564,"RA_OF_ASC_NODE":65.9538,"ARG_OF_PERICENTER":104.0392,"MEAN_ANOMALY":256.0844,"EPHEMERIS_TYPE":0,"CLASSIFICATION_TYPE":"U","NORAD_CAT_ID":53193,"ELEMENT_SET_NO":999,"REV_AT_EPOCH":8076,"BSTAR":0.00017643,"MEAN_MOTION_DOT":2.207e-5,"MEAN_MOTION_DDOT":0},{"OBJECT_NAME":"STARLINK-4382","OBJECT_ID":"2022-084F","EPOCH":"2024-01-02T16:21:33.768576","MEAN_MOTION":15.01258681,"ECCENTRICITY":8.2e-5,"INCLINATION":97.6563,"RA_OF_ASC_NODE":65.8859,"ARG_OF_PERICENTER":254.2668,"MEAN_ANOMALY":105.8466,"EPHEMERIS_TYPE":0,"CLASSIFICATION_TYPE":"U","NORAD_CAT_ID":53194,"ELEMENT_SET_NO":999,"REV_AT_EPOCH":7973,"BSTAR":-1.2263e-5,"MEAN_MOTION_DOT":-2.16e-6,"MEAN_MOTION_DDOT":0},{"OBJECT_NAME":"STARLINK-4404","OBJECT_ID":"2022-084G","EPOCH":"2024-01-03T03:14:45.435840","MEAN_MOTION":15.01261954,"ECCENTRICITY":0.0003487,"INCLINATION":97.6577,"RA_OF_ASC_NODE":66.3495,"ARG_OF_PERICENTER":204.0996,"MEAN_ANOMALY":156.0066,"EPHEMERIS_TYPE":0,"CLASSIFICATION_TYPE":"U","NORAD_CAT_ID":53195,"ELEMENT_SET_NO":999,"REV_AT_EPOCH":8018,"BSTAR":6.2578e-5,"MEAN_MOTION_DOT":7.45e-6,"MEAN_MOTION_DDOT":0},{"OBJECT_NAME":"STARLINK-4407","OBJECT_ID":"2022-084H","EPOCH":"2024-01-03T03:17:25.014048","MEAN_MOTION":15.0126062,"ECCENTRICITY":0.0003075,"INCLINATION":97.6573,"RA_OF_ASC_NODE":66.3509,"ARG_OF_PERICENTER":207.19,"MEAN_ANOMALY":152.9164,"EPHEMERIS_TYPE":0,"CLASSIFICATION_TYPE":"U","NORAD_CAT_ID":53196,"ELEMENT_SET_NO":999,"REV_AT_EPOCH":8018,"BSTAR":-9.0797e-6,"MEAN_MOTION_DOT":-1.76e-6,"MEAN_MOTION_DDOT":0},{"OBJECT_NAME":"STARLINK-4403","OBJECT_ID":"2022-084J","EPOCH":"2024-01-03T03:20:04.992288","MEAN_MOTION":15.01259543,"ECCENTRICITY":0.0003505,"INCLINATION":97.6573,"RA_OF_ASC_NODE":66.3349,"ARG_OF_PERICENTER":224.7436,"MEAN_ANOMALY":135.3506,"EPHEMERIS_TYPE":0,"CLASSIFICATION_TYPE":"U","NORAD_CAT_ID":53197,"ELEMENT_SET_NO":999,"REV_AT_EPOCH":8018,"BSTAR":-2.2936e-5,"MEAN_MOTION_DOT":-3.54e-6,"MEAN_MOTION_DDOT":0},{"OBJECT_NAME":"STARLINK-4385","OBJECT_ID":"2022-084K","EPOCH":"2024-01-02T17:49:30.782496","MEAN_MOTION":15.01278454,"ECCENTRICITY":0.0002407,"INCLINATION":97.6567,"RA_OF_ASC_NODE":65.9449,"ARG_OF_PERICENTER":245.2068,"MEAN_ANOMALY":114.8906,"EPHEMERIS_TYPE":0,"CLASSIFICATION_TYPE":"U","NORAD_CAT_ID":53198,"ELEMENT_SET_NO":999,"REV_AT_EPOCH":8040,"BSTAR":0.00019023,"MEAN_MOTION_DOT":2.386e-5,"MEAN_MOTION_DDOT":0},{"OBJECT_NAME":"STARLINK-4395","OBJECT_ID":"2022-084L","EPOCH":"2024-01-03T03:22:45.323040","MEAN_MOTION":15.01259074,"ECCENTRICITY":8.61e-5,"INCLINATION":97.6562,"RA_OF_ASC_NODE":66.331,"ARG_OF_PERICENTER":270.2462,"MEAN_ANOMALY":89.8663,"EPHEMERIS_TYPE":0,"CLASSIFICATION_TYPE":"U","NORAD_CAT_ID":53199,"ELEMENT_SET_NO":999,"REV_AT_EPOCH":8018,"BSTAR":-1.4553e-5,"MEAN_MOTION_DOT":-2.46e-6,"MEAN_MOTION_DDOT":0}]
