STARLINK-4276           
1 53179U 22083AZ  24002.54250986  .00001478  00000+0  11090-3 0  9990
2 53179  53.2170 102.2539 0001441  78.7852 281.3302 15.08845893 81575
STARLINK-4258           
1 53180U 22083BA  24002.70078227  .00001025  00000+0  82496-4 0  9993
2 53180  53.2174 101.8144 0001289  90.8296 269.2844 15.08843860 81595
STARLINK-4273           
1 53181U 22083BB  24002.49468806 -.00004020  00000+0 -23442-3 0  9991
2 53181  53.2174 102.6624 0001168  88.9913 271.1213 15.08869383 81565
STARLINK-4278           
1 53182U 22083BC  24002.58717004  .00001421  00000+0  10735-3 0  9990
2 53182  53.2176 117.4457 0001397  76.1120 284.0027 15.08852037 81361
STARLINK-4268           
1 53183U 22083BD  24002.66169683  .00000792  00000+0  67868-4 0  9994
2 53183  53.2167 107.0278 0001374  92.1762 267.9387 15.08843894 81510
STARLINK-4257           
1 53184U 22083BE  24002.53883452  .00000058  00000+0  21760-4 0  9994
2 53184  53.2167 102.2563 0001413  80.6643 279.4509 15.08840222 81582
STARLINK-4391           
1 53189U 22084A   24002.75780585  .00002523  00000+0  20088-3 0  9997
2 53189  97.6562  65.9499 0001580  76.6506 283.4894 15.01278792 80423
STARLINK-4332           
1 53190U 22084B   24002.71867355  .00000621  00000+0  52956-4 0  9993
2 53190  97.6585  65.9276 0000298 210.9535 149.1672 15.01260321 80413
STARLINK-4369           
1 53191U 22084C   24003.14635395 -.00000256  00000+0 -15300-4 0  9997
2 53191  97.6566  66.3432 0001631 247.7427 112.3624 15.01260320 80184
STARLINK-4375           
1 53192U 22084D   24003.14450138 -.00000227  00000+0 -13103-4 0  9995
2 53192  97.6566  66.3412 0002170 253.8083 106.2903 15.01260153 80184
STARLINK-4351           
1 53193U 22084E   24002.75014691  .00002207  00000+0  17643-3 0  9992
2 53193  97.6564  65.9538 0000106 104.0392 256.0844 15.01253623 80760
STARLINK-4382           
1 53194U 22084F   24002.68164084 -.00000216  00000+0 -12263-4 0  9991
2 53194  97.6563  65.8859 0000820 254.2668 105.8466 15.01258681 79737
STARLINK-4404           
1 53195U 22084G   24003.13524810  .00000745  00000+0  62578-4 0  9999
2 53195  97.6577  66.3495 0003487 204.0996 156.0066 15.01261954 80186
STARLINK-4407           
1 53196U 22084H   24003.13709507 -.00000176  00000+0 -90797-5 0  9993
2 53196  97.6573  66.3509 0003075 207.1900 152.9164 15.01260620 80184
STARLINK-4403           
1 53197U 22084J   24003.13894667 -.00000354  00000+0 -22936-4 0  9993
2 53197  97.6573  66.3349 0003505 224.7436 135.3506 15.01259543 80181
STARLINK-4385           
1 53198U 22084K   24002.74271739  .00002386  00000+0  19023-3 0  9996
2 53198  97.6567  65.9449 0002407 245.2068 114.8906 15.01278454 80403
STARLINK-4395           
1 53199U 22084L   24003.14080235 -.00000246  00000+0 -14553-4 0  9990
2 53199  97.6562  66.3310 0000861 270.2462  89.8663 15.01259074 80182
